UNKNOWN                 
1 81749U          24157.22314142 -.00000016  00000+0  73561-4 0  9990
2 81749  99.7314 259.1566 0365915 345.0078  43.2516 12.77309556491071
UNKNOWN                 
1 81775U          24157.44786417  .00008712  00000+0  34438-2 0  9999
2 81775  82.9241 320.3822 0022205 156.2425 203.9792 14.28756044545616
UNKNOWN                 
1 81792U          24157.73081108  .00005655  00000+0  21146-2 0  9990
2 81792  65.8157 259.4635 0901004 169.8964 192.1621 13.07682220  7361
UNKNOWN                 
1 81812U          24158.38932929  .00003274  00000+0  22194-1 0  9999
2 81812 103.5782   1.6734 0347486  93.9667 270.1177 12.33103645472108
UNKNOWN                 
1 81813U          24158.47385224  .00009227  00000+0  22831-2 0  9993
2 81813  99.0192  66.9703 0015621 337.4078  22.6426 14.52149151555135
UNKNOWN                 
1 81816U 77121    24158.61038569  .00003755  00000+0  28634-2 0  9994
2 81816  66.2390 234.9129 0187109 213.2091 145.7126 13.86735945532429
UNKNOWN                 
1 81817U          24152.29188996  .00223090  00000+0  43746-2 0  9992
2 81817  65.6957 182.9630 0103535 276.9923  81.9455 15.40726270564167
UNKNOWN                 
1 81819U          24154.68102595  .00000473  00000+0  35583-2 0  9998
2 81819 102.1791 238.5406 0036490  86.6711 273.8529 12.46654379478449
UNKNOWN                 
1 81824U          24156.68845898  .00005949  00000+0  25042-2 0  9998
2 81824  65.8479  44.6773 0055283 281.1742  78.3134 14.25603252545025
UNKNOWN                 
1 81833U          24157.29150200  .00000311  00000+0  11043-2 0  9996
2 81833  90.2399 350.6524 0028700  41.6520 318.6777 12.93395760380709
UNKNOWN                 
1 81838U          24138.90779057  .00014744  00000+0  41629-2 0  9993
2 81838  67.7636 313.6626 0042325 212.5930 296.5096 14.45274677550048
UNKNOWN                 
1 81844U          24156.90353624  .00007566  00000+0  32622-2 0  9995
2 81844  82.9209  14.4716 0074861  47.3347 313.4110 14.22911027543536
UNKNOWN                 
1 81845U          24156.83840802  .00003547  00000+0  44387-3 0  9994
2 81845  97.7035 359.1782 0095963 327.6593  44.1406 14.79670284567152
UNKNOWN                 
1 81864U          24158.03151847  .00002009  00000+0  76907-3 0  9998
2 81864  65.6734 280.1698 0788833 253.5347  97.7655 13.29099368477018
UNKNOWN                 
1 81865U 87062    24158.08562771  .00002056  00000+0  17660-2 0  9991
2 81865  82.8061  95.9829 0067196 136.7764 236.3979 13.85249906531678
UNKNOWN                 
1 81873U          24147.89799784  .00005008  00000+0  24800-2 0  9994
2 81873  99.0626 210.9597 0065459 239.6978 119.7708 14.16607063489487
UNKNOWN                 
1 81893U 70025    24157.67284126  .00001511  00000+0  16478-2 0  9993
2 81893  99.9876 107.1364 0018637 254.2602 105.6489 13.74420974527757
UNKNOWN                 
1 81899U          24158.20804580  .00001332  00000+0  32673-2 0  9993
2 81899 102.4386 154.7727 0177242 304.8413  53.6134 13.18359144505854
UNKNOWN                 
1 81921U          24158.47583962  .00001408  00000+0  58317-3 0  9994
2 81921  65.7108 228.4961 0872148 349.6289   8.7709 13.11081712955750
UNKNOWN                 
1 81946U 87079    24146.30639806  .00000342  00000+0  12776-2 0  9994
2 81946  66.4203 161.7736 0679732 265.4081 101.7802 12.42310199477517
UNKNOWN                 
1 81947U          24158.02670584  .00011473  00000+0  12349-2 0  9997
2 81947  66.0805 264.7360 0413001 121.1578 243.0710 14.42110761550709
UNKNOWN                 
1 81964U          24158.54177016  .00000351  00000+0  31713-3 0  9995
2 81964  66.5836 194.4886 0028159  93.5371 266.8930 13.95142770536712
UNKNOWN                 
1 81969U          24158.40384606  .00009183  00000+0  82777-3 0  9998
2 81969  86.6663  32.4000 0009799  26.4391 333.7336 14.95421131356887
UNKNOWN                 
1 81995U          24155.33514225 -.00000233  00000+0 -21275-4 0  9994
2 81995  65.7493 130.1839 0561345 215.7832 140.4393 13.92722636526261
UNKNOWN                 
1 82003U          24157.28396488  .00001724  00000+0  21130-1 0  9991
2 82003  46.4806 143.0550 2900976 182.2695 176.1550  8.18283247  2984
UNKNOWN                 
1 82043U          24156.24773041  .00002218  00000+0  67431-3 0  9999
2 82043  97.8965 349.1311 0247350 312.0025  46.0327 14.26869495494316
UNKNOWN                 
1 82044U          24157.74780807  .00001807  00000+0  18648-2 0  9992
2 82044  99.9051 262.8717 0062315 271.6954  87.7058 13.76633911485560
UNKNOWN                 
1 82051U          24157.47882452  .00008506  00000+0  33745-2 0  9997
2 82051  98.7731 232.1665 0108574  88.9120 272.4497 14.25839004492973
UNKNOWN                 
1 82073U          24156.78272497  .00009370  00000+0  26202-2 0  9996
2 82073  97.7470 281.6367 0226155 176.7962 183.4737 14.32358794495320
UNKNOWN                 
1 82139U          24154.93284190  .00003446  00000+0  18847-2 0  9991
2 82139  99.0614 210.7631 0090264 174.9119 185.2989 14.10576794401323
UNKNOWN                 
1 82162U          24158.13598960  .00004296  00000+0  70074-2 0  9990
2 82162 100.4579  47.7785 0051629 119.4525 241.1771 13.47806841429421
UNKNOWN                 
1 82180U          24157.66288508  .00021140  00000+0  38594-2 0  9999
2 82180  65.6662  29.4764 0394952 140.2743 222.7995 14.26007986521846
UNKNOWN                 
1 82189U          24156.21000583  .00000484  00000+0  18097-3 0  9998
2 82189  74.0334 348.1917 0017150 311.9918  47.9772 14.34428054552597
UNKNOWN                 
1 82199U          24156.67320316  .00001053  00000+0  91698-3 0  9999
2 82199  82.9656 291.6275 0038296 173.6179 201.5415 13.84718971532705
UNKNOWN                 
1 82205U          24157.00672415  .00002682  00000+0  79063-3 0  9996
2 82205  63.0112  16.9822 0520800 235.7233 119.3459 13.87831638530705
UNKNOWN                 
1 82223U          24158.39862978  .00004145  00000+0  24257-2 0  9994
2 82223  99.3604  17.4949 0074694  86.1749 274.7954 14.07473906370671
UNKNOWN                 
1 82250U          24156.70342565  .00005277  00000+0  31030-2 0  9996
2 82250  98.9265  60.4520 0077637 322.0605  65.5298 14.06940680538237
UNKNOWN                 
1 82272U          24158.15295971  .00000435  00000+0  15294-2 0  9994
2 82272  67.5248 124.6308 0747867 101.1375 267.4581 12.32815315203555
UNKNOWN                 
1 82284U          24150.18131180  .00014988  00000+0  35619-2 0  9994
2 82284  99.5438  51.5063 0071726 249.0930 110.2573 14.52421981591207
UNKNOWN                 
1 82295U          24156.75765958  .00001602  00000+0  61071-3 0  9992
2 82295  66.6187 167.8417 0135542 255.6553 102.9464 14.28502645500229
UNKNOWN                 
1 82303U          24158.14902002  .00025384  00000+0  37624-1 0  9998
2 82303  81.9340 107.5856 0113454  36.7548 338.1973 13.51031881438556
UNKNOWN                 
1 82311U          24157.68163122  .00001023  00000+0  15297-2 0  9994
2 82311  99.4751 229.9113 0108644 265.4001  93.4719 13.53376920475200
UNKNOWN                 
1 82363U          24154.15403541  .00000282  00000+0  54253-3 0  9994
2 82363  66.9376 309.3478 0457206 162.6480 199.0790 13.14737064216804
UNKNOWN                 
1 82369U 99025    24157.33555766  .00000318  00000+0  24798-3 0  9996
2 82369  98.9346 182.1976 0085010  72.6241 288.4197 13.97609273479577
UNKNOWN                 
1 82381U          24156.82363762  .00015201  00000+0  36582-2 0  9991
2 82381  98.4393   0.8781 0016789  79.3696 280.9390 14.53288015429301
UNKNOWN                 
1 82402U          24158.10413967  .00006239  00000+0  59724-3 0  9996
2 82402  86.6701  33.3453 0010525  30.8358 329.3487 14.92995777371408
UNKNOWN                 
1 82410U          24154.63333381  .00000249  00000+0  32553-3 0  9996
2 82410  66.6576 238.0669 0056897  41.0550 319.4781 13.76687758509899
UNKNOWN                 
1 82432U 93036    24152.74290097  .00002075  00000+0  48463-3 0  9993
2 82432  74.0085 325.4638 0059959 265.6238  93.8073 14.54289831401364
UNKNOWN                 
1 82448U          24158.40873985  .00008220  00000+0  78596-3 0  9999
2 82448  85.8749 133.3172 0012689  93.5888 266.6791 14.93053905354015
UNKNOWN                 
1 82453U          24157.61960201  .00000032  00000+0  56837-3 0  9992
2 82453 102.0968 110.2659 0093817 152.0132 208.6020 12.39628394477278
UNKNOWN                 
1 82458U          24157.46937546  .00004024  00000+0  20645-2 0  9998
2 82458  66.5141 182.5065 0055608  14.9362 345.3354 14.15576886531218
UNKNOWN                 
1 82464U          24155.88418410  .00035861  00000+0  53085-2 0  9990
2 82464  70.9898 204.2667 0052171 223.1070 311.8148 14.74052689553910
UNKNOWN                 
1 82484U          24157.58814058  .00000263  00000+0  43627-3 0  9999
2 82484  99.4149 200.1612 0045950 159.8517 200.4448 13.55457757515412
UNKNOWN                 
1 82494U 93036    24157.91439500  .00012646  00000+0  25207-2 0  9994
2 82494  74.0197  26.4103 0005694 268.6180  91.4335 14.62035165  3201
UNKNOWN                 
1 82500U          24158.51114853  .00004539  00000+0  23589-2 0  9992
2 82500  70.9738  90.3002 0134297 233.5302 125.3382 14.10661623540541
UNKNOWN                 
1 82517U          24158.40304210  .00382988  00000+0  20268-1 0  9993
2 82517  86.3644 309.8170 0024455 246.8413 113.0249 15.13401839  7037
UNKNOWN                 
1 82524U          24158.26367025  .00008090  00000+0  31195-2 0  9999
2 82524  73.2872 155.9476 0162211 304.8291  66.9179 14.23429551497799
UNKNOWN                 
1 82529U          24158.53948648  .00002495  00000+0  39004-2 0  9990
2 82529  99.8011 253.4773 0247130 150.9017 224.8686 13.39961630515487
UNKNOWN                 
1 82545U          24152.83311191 -.00000041  00000+0  57176-4 0  9990
2 82545  64.8824 357.5910 0169298  36.8565 324.3859 11.30796305375606
UNKNOWN                 
1 82560U          24147.94472403  .00002115  00000+0  18179-2 0  9998
2 82560  99.9852  44.5128 0011425   5.5004  57.6521 13.87968472533435
